    PK15W020  2015 10  8.5362  2.659936  0.635292  117.7072  294.0754   11.6202  20250408  13.0  4.0  P/2015 W2 (Catalina)                                     MPC101098
    PK15X030  2026 10 23.6048  2.799436  0.439882  306.9711   77.2555   24.4225  20250408  15.0  4.0  P/2015 X3 (PANSTARRS)                                    MPEC 2023-J29
    PK15X060  2025 05 11.5177  2.273709  0.174010  329.7529  106.9317    4.5656  20250408  16.0  4.0  P/2015 X6 (PANSTARRS)                                    MPC115881
    PK16A030  2017 04 26.3765  4.822835  0.387016  340.7988  187.1355    8.5204  20250408  10.0  4.0  P/2016 A3 (PANSTARRS)                                    MPEC 2022-OB6
    PK16A070  2027 05 28.1886  2.178586  0.569616  352.6778  220.8526   16.3496  20250408  16.0  4.0  P/2016 A7 (PANSTARRS)                                    MPC102098
    PK16G010  2025 05 16.1469  2.041074  0.210055  111.0877  204.0115   10.9699  20250408  14.0  4.0  P/2016 G1 (PANSTARRS)                                    MPEC 2021-P47
    CK16J020  2016 04 12.9061  1.496202  1.000383  318.2789  186.2952  130.3685  20250408  17.0  4.0  C/2016 J2 (Denneau)                                      MPEC 2024-C04
    PK16P010  2027 03  5.7221  2.282877  0.287464  270.9764  319.0713   24.4287  20250408  15.0  4.0  P/2016 P1 (PANSTARRS)                                    MPC102099
    PK16P050  2023 05 22.5949  4.431235  0.057273   33.9096  185.3793    7.0378  20250408  13.2  4.0  P/2016 P5 (COIAS)                                        MPEC 2025-F40
    CK16Q020  2021 05 11.7546  7.079929  1.002548   84.5313  322.3479  109.3296  20250408   6.0  4.0  C/2016 Q2 (PANSTARRS)                                    MPEC 2024-H50
    PK16R040  2028 11 19.4364  2.803170  0.474802  174.1065  168.2690   10.8645  20250408  12.5  4.0  P/2016 R4 (Gibbs)                                        MPEC 2022-K19
    PK16S010  2017 03 20.3977  2.380861  0.711995  273.1636  227.6505   94.7334  20250408  12.0  4.0  P/2016 S1 (PANSTARRS)                                    MPC105543
    PK16W48M  2017 02 27.2689  1.764648  0.784105   36.1813   59.9480  117.6234  20250408  15.0  4.0  P/2016 WM48 (Lemmon)                                     MPC106345
    CK16X010  2019 04 30.5462  7.559620  0.997060  224.6017  256.3002   26.4698  20250408   6.0  4.0  C/2016 X1 (Lemmon)                                       MPEC 2021-P47
    CK17B030  2019 01 30.2036  3.933543  0.998889  284.7729    2.2389   54.2176  20250408   6.0  4.0  C/2017 B3 (LINEAR)                                       MPEC 2022-OB6
    PK17B040  2017 01  5.8178  2.800894  0.364952   11.0197  121.4578   20.0584            14.5  4.0  P/2017 B4 (PANSTARRS)                                    MPC103847
    PK17D010  2027 01 30.9278  2.711120  0.437815    8.0716   82.1945   20.7715  20250408  14.0  4.0  P/2017 D1 (Fuls)                                         MPEC 2022-OB6
    PK17D040  2016 09 10.4016  2.786164  0.630581  212.1291  264.9134   10.5615  20250408  13.0  4.0  P/2017 D4 (PANSTARRS)                                    MPEC 2022-OB6
    PK17G010  2016 04 20.7347  2.511499  0.650814  225.2485  247.1391    5.1553  20250408  13.5  4.0  P/2017 G1 (PANSTARRS)                                    MPEC 2024-C04
    PK17G020  2017 06 10.1760  2.822360  0.648796  105.2135   79.8986   47.9683  20250408  13.0  4.0  P/2017 G2 (PANSTARRS)                                    MPC108595
    CK17K020  2022 12 18.7538  1.799710  0.999203  236.1827   88.2217   87.6441  20250408   1.5  4.0  C/2017 K2 (PANSTARRS)                                    MPC182878
    PK17K030  2030 07 31.6532  2.351256  0.579113  253.2888  354.2067    4.2724  20250408  14.5  4.0  P/2017 K3 (Gasparovic)                                   MPEC 2021-N06
    CK17K050  2020 03 25.6877  7.678599  1.003070  171.9519  102.4562   82.2788  20250408   5.0  4.0  C/2017 K5 (PANSTARRS)                                    MPEC 2021-P47
    CK17M040  2019 01 17.6871  3.237022  1.000258  167.4255   66.0160  105.6254  20250408   6.0  4.0  C/2017 M4 (ATLAS)                                        MPEC 2022-OB6
    PK17P010  2018 06 19.7565  5.472709  0.309114  122.7914  221.4687    7.6880  20250408  10.0  4.0  P/2017 P1 (PANSTARRS)                                    MPC114599
    PK17S080  2027 05  4.4819  1.691845  0.391130  254.9142  191.5119   29.8402  20250408  16.0  4.0  P/2017 S8 (PANSTARRS)                                    MPEC 2022-OB6
    CK17T020  2020 05  5.9336  1.604456  0.998982   92.7820   64.4420   57.2874  20250408   5.0  4.0  C/2017 T2 (PANSTARRS)                                    MPEC 2024-A43
    PK17T13W  2018 06 23.7135  2.064816  0.710694  120.0075  322.1312   44.8814  20250408  15.0  2.0  P/2017 TW13 (Lemmon)                                     MPC115882
    PK17U030  2030 03 15.5074  4.423788  0.100814  296.4244  165.0595   15.9216  20250408  11.0  4.0  P/2017 U3 (PANSTARRS)                                    MPEC 2022-K19
    CK17U070  2019 09 16.2533  6.420504  1.002761  326.4285  276.3196  142.6391  20250408   8.3  2.0  C/2017 U7 (PANSTARRS)                                    MPEC 2023-A50
    PK17W030  2018 02 26.5422  3.854851  0.506985  327.7681  210.0778   18.1862  20250408  10.5  4.0  P/2017 W3 (Gibbs)                                        MPC114601
    CK17Y020  2020 11  4.9605  4.622365  1.001152  147.8214   66.0322  128.4485  20250408  15.0  4.0  C/2017 Y2 (PANSTARRS)                                    MPEC 2024-DC6
    PK17Y030  2018 02  6.3763  1.277670  0.869568   67.3450  154.0102   27.6262  20250408  16.5  4.0  P/2017 Y3 (Leonard)                                      MPC111770
    CK18A030  2019 01  8.7303  3.292458  0.990456   86.4984  194.3511  139.6021  20250408   8.5  4.0  C/2018 A3 (ATLAS)                                        MPEC 2021-P47
    PK18A050  2031 01 31.1558  2.674463  0.524491  359.5479   87.7837   23.6243  20250408  15.0  4.0  P/2018 A5 (PANSTARRS)                                    MPC109147
    CK18A060  2019 07 10.2693  3.017249  0.798826  264.2742  340.4520   77.1533  20250408   9.0  4.0  C/2018 A6 (Gibbs)                                        MPEC 2024-JU4
    PK18C010  2031 07 31.0504  2.640402  0.532637  235.7907  270.2076    5.1020  20250408  13.5  4.0  P/2018 C1 (Lemmon-Read)                                  MPC114601
    CK18D04O  2019 08 17.0368  2.421321  0.905099  176.4118  251.3921  160.4463  20250408  11.0  4.0  C/2018 DO4 (Lemmon)                                      MPEC 2022-M88
    CK18F010  2018 12 10.1556  2.992077  0.986262   71.4377  177.3171   46.1663  20250408  11.5  4.0  C/2018 F1 (Grauer)                                       MPEC 2021-R75
    CK18F040  2019 11 30.9720  3.448487  0.998079  263.1977   26.5348   78.1300  20250408  11.0  6.0  C/2018 F4 (PANSTARRS)                                    MPEC 2023-A50
    CK18F04a  2019 11 30.9601  3.448355  0.998026  263.1945   26.5350   78.1302  20250408  11.0  6.0  C/2018 F4-A                                              MPEC 2021-Y10
    CK18F04b  2019 11 30.8969  3.448172  0.998115  263.1803   26.5345   78.1312  20250408  11.0  6.0  C/2018 F4-B                                              MPEC 2023-D41
    PK18H020  2027 03 18.3157  2.027667  0.539924  119.2287   67.9832    7.4181  20250408  16.6  2.0  P/2018 H2 (PANSTARRS)                                    MPC114602
    CK18K03J  2019 09  8.8958  3.617670  0.994896  217.5411   91.6950  136.6209  20250408  12.2  2.0  C/2018 KJ3 (Lemmon)                                      MPEC 2021-R75
    PK18L010  2025 11  5.8397  1.897361  0.481295   17.9519  268.5846   10.5785  20250408  15.0  4.0  P/2018 L1 (PANSTARRS)                                    MPC114602
    CK18L020  2018 11 29.6788  1.721461  0.992733   56.3469  242.9875   67.2111  20250408  10.0  4.0  C/2018 L2 (ATLAS)                                        MPEC 2021-P47
    PK18L040  2029 07 28.8854  1.691244  0.658238  140.5096  145.2236   26.5924  20250408  17.5  4.0  P/2018 L4 (PANSTARRS)                                    MPC114603
    CK18N020  2019 11 12.0796  3.135168  1.001992   25.3202   24.5226   77.5041  20250408   6.0  4.0  C/2018 N2 (ASASSN)                                       MPEC 2022-YN2
    PK18P040  2018 11  7.3013  3.688253  0.449141    8.5166  353.1575   23.0804  20250408  12.0  4.0  P/2018 P4 (PANSTARRS)                                    MPC114603
    CK18P050  2019 02 25.9704  4.602934  0.641690  132.0387  216.2673    7.2464  20250408  11.0  4.0  C/2018 P5 (PANSTARRS)                                    MPEC 2021-P47
    CK18R030  2019 06  8.0469  1.283904  0.999277  112.7943  324.3767   69.6895  20250408   9.5  4.0  C/2018 R3 (Lemmon)                                       MPC118841
    CK18R050  2019 01 10.7658  3.638137  0.841695  178.2732  171.2619  103.6886  20250408  11.5  4.0  C/2018 R5 (Lemmon)                                       MPC114603
    CK18S020  2018 11  5.5712  5.490025  0.617956  290.9437   85.1073   64.1105  20250408   7.5  4.0  C/2018 S2 (TESS)                                         MPEC 2022-QC6
    CK18U010  2021 11  2.2314  4.986542  1.000256  180.3630   75.5151  108.3257  20250408   5.0  4.0  C/2018 U1 (Lemmon)                                       MPEC 2024-JU4
    CK18V010  2018 12  4.0030  0.390978  1.000457   89.5625  129.5828  144.1975  20250408  12.0  4.0  C/2018 V1 (Machholz-Fujikawa-Iwamoto)                    MPC114604
    CK18V020  2018 11 26.2328  2.492465  0.901258  319.2771  357.2115  159.1621  20250408  15.0  4.0  C/2018 V2 (ATLAS)                                        MPC115884
    PK18V02N  2026 08 15.7281  2.119219  0.478183  138.9260  226.4390   18.2575  20250408  15.0  4.0  P/2018 VN2 (Leonard)                                     MPEC 2025-A40
    AK18V030  2019 09 10.4527  1.330631  0.989562    3.5816  308.8157  164.9155  20250408  15.7  2.0  A/2018 V3                                                MPEC 2025-A40
